STARLINK-2143
1 27733C 21017M   21325.16216652  .00006898  00000-0  46210-3 0  3257
2 27733  53.0415  67.5690 0001434  76.5178 332.1900 15.06398798    18
